[{"OBJECT_NAME":"LEGION 1","OBJECT_ID":"2024-081A","EPOCH":"2026-03-09T22:23:33.170784","MEAN_MOTION":15.17519519,"ECCENTRICITY":0.00050491,"INCLINATION":97.5067,"RA_OF_ASC_NODE":147.8287,"ARG_OF_PERICENTER":20.2836,"MEAN_ANOMALY":339.8597,"EPHEMERIS_TYPE":0,"CLASSIFICATION_TYPE":"U","NORAD_CAT_ID":59625,"ELEMENT_SET_NO":999,"REV_AT_EPOCH":10249,"BSTAR":0.00027762917,"MEAN_MOTION_DOT":5.502e-5,"MEAN_MOTION_DDOT":0},{"OBJECT_NAME":"OBJECT C","OBJECT_ID":"2025-180C","EPOCH":"2026-03-09T23:47:54.737664","MEAN_MOTION":15.14468548,"ECCENTRICITY":0.00128699,"INCLINATION":97.5082,"RA_OF_ASC_NODE":197.2463,"ARG_OF_PERICENTER":306.8815,"MEAN_ANOMALY":53.1236,"EPHEMERIS_TYPE":0,"CLASSIFICATION_TYPE":"U","NORAD_CAT_ID":65261,"ELEMENT_SET_NO":999,"REV_AT_EPOCH":3064,"BSTAR":0.00036364309,"MEAN_MOTION_DOT":6.637e-5,"MEAN_MOTION_DDOT":0}]
